{
    "links": {
        "self": "http://www.neowsapp.com/rest/v1/neo/3632678?api_key=iIulBulltgU6a56xZRHN4H3l9WmuAYTsLGpBGhQ2"
    },
    "id": "3632678",
    "neo_reference_id": "3632678",
    "name": "(2013 EZ108)",
    "designation": "2013 EZ108",
    "nasa_jpl_url": "http://ssd.jpl.nasa.gov/sbdb.cgi?sstr=3632678",
    "absolute_magnitude_h": 22.0,
    "estimated_diameter": {
        "kilometers": {
            "estimated_diameter_min": 0.1058168859,
            "estimated_diameter_max": 0.2366137501
        },
        "meters": {
            "estimated_diameter_min": 105.8168859331,
            "estimated_diameter_max": 236.6137501138
        },
        "miles": {
            "estimated_diameter_min": 0.0657515442,
            "estimated_diameter_max": 0.1470249225
        },
        "feet": {
            "estimated_diameter_min": 347.1682720448,
            "estimated_diameter_max": 776.2918559233
        }
    },
    "is_potentially_hazardous_asteroid": false,
    "close_approach_data": [
        {
            "close_approach_date": "2011-02-28",
            "close_approach_date_full": "2011-Feb-28 16:29",
            "epoch_date_close_approach": 1298910540000,
            "relative_velocity": {
                "kilometers_per_second": "4.750220329",
                "kilometers_per_hour": "17100.7931843886",
                "miles_per_hour": "10625.767853933"
            },
            "miss_distance": {
                "astronomical": "1.1804503662",
                "lunar": "459.1951924518",
                "kilometers": "176592860.424239994",
                "miles": "109729715.2331161572"
            },
            "orbiting_body": "Juptr"
        },
        {
            "close_approach_date": "2013-03-23",
            "close_approach_date_full": "2013-Mar-23 02:46",
            "epoch_date_close_approach": 1364006760000,
            "relative_velocity": {
                "kilometers_per_second": "11.3936494139",
                "kilometers_per_hour": "41017.1378899626",
                "miles_per_hour": "25486.4543739048"
            },
            "miss_distance": {
                "astronomical": "0.164534229",
                "lunar": "64.003815081",
                "kilometers": "24613970.20049223",
                "miles": "15294411.871283574"
            },
            "orbiting_body": "Earth"
        }
    ],
    "orbital_data": {
        "orbit_id": "11",
        "orbit_determination_date": "2017-04-06 08:46:24",
        "first_observation_date": "2013-03-15",
        "last_observation_date": "2013-05-08",
        "data_arc_in_days": 54,
        "observations_used": 83,
        "orbit_uncertainty": "7",
        "minimum_orbit_intersection": ".128765",
        "jupiter_tisserand_invariant": "3.219",
        "epoch_osculation": "2459000.5",
        "eccentricity": ".5480660956751996",
        "semi_major_axis": "2.469111037019979",
        "inclination": "15.20105364727922",
        "ascending_node_longitude": ".3419563389286899",
        "orbital_period": "1417.128910463268",
        "perihelion_distance": "1.115874991171896",
        "perihelion_argument": "197.5582897628827",
        "aphelion_distance": "3.822347082868062",
        "perihelion_time": "2459217.583951131109",
        "mean_anomaly": "304.8531309818162",
        "mean_motion": ".254034758123955",
        "equinox": "J2000",
        "orbit_class": {
            "orbit_class_type": "AMO",
            "orbit_class_description": "Near-Earth asteroid orbits similar to that of 1221 Amor",
            "orbit_class_range": "1.017 AU < q (perihelion) < 1.3 AU"
        }
    },
    "is_sentry_object": false
}